{
  "type": "FeatureCollection",
  "features": [
    {
      "type": "Feature",
      "properties": {
        "norad_id": 42989,
        "name": "SKYSAT-C9",
        "group": "resource",
        "lat": 82.1733217857018,
        "lon": 59.70035601207041,
        "alt_km": 444.36778095232603,
        "timestamp": "2025-12-26T18:39:31.929886+00:00",
        "meta_object_name": "SKYSAT-C9",
        "meta_object_id": "2017-068C",
        "meta_epoch": "2025-12-26T08:54:05.306400",
        "meta_mean_motion": 15.36395186,
        "meta_eccentricity": 0.00101854,
        "meta_inclination": 97.4193,
        "meta_ra_of_asc_node": 130.7353,
        "meta_arg_of_pericenter": 43.9303,
        "meta_mean_anomaly": 316.2749,
        "meta_ephemeris_type": 0,
        "meta_classification_type": "U",
        "meta_norad_cat_id": 42989,
        "meta_element_set_no": 999,
        "meta_rev_at_epoch": 45617,
        "meta_bstar": 0.00038181732,
        "meta_mean_motion_dot": 0.00013502,
        "meta_mean_motion_ddot": 0,
        "tle_line1": "1 42989U 17068C   25360.37089475  .00013502  00000+0  38182-3 0  9998",
        "tle_line2": "2 42989  97.4193 130.7353 0010185  43.9303 316.2749 15.36395186456178"
      },
      "geometry": {
        "type": "Point",
        "coordinates": [
          59.70035601207041,
          82.1733217857018
        ]
      }
    },
    {
      "type": "Feature",
      "properties": {
        "norad_id": 42990,
        "name": "SKYSAT-C8",
        "group": "resource",
        "lat": -76.95298294932658,
        "lon": -83.42594552626501,
        "alt_km": 472.87447315402005,
        "timestamp": "2025-12-26T18:39:31.929896+00:00",
        "meta_object_name": "SKYSAT-C8",
        "meta_object_id": "2017-068D",
        "meta_epoch": "2025-12-26T14:23:55.826880",
        "meta_mean_motion": 15.33228179,
        "meta_eccentricity": 9.515e-05,
        "meta_inclination": 97.4287,
        "meta_ra_of_asc_node": 130.6632,
        "meta_arg_of_pericenter": 257.2238,
        "meta_mean_anomaly": 102.8898,
        "meta_ephemeris_type": 0,
        "meta_classification_type": "U",
        "meta_norad_cat_id": 42990,
        "meta_element_set_no": 999,
        "meta_rev_at_epoch": 45583,
        "meta_bstar": 0.0003895194,
        "meta_mean_motion_dot": 0.00012433,
        "meta_mean_motion_ddot": 0,
        "tle_line1": "1 42990U 17068D   25360.59995170  .00012433  00000+0  38952-3 0  9999",
        "tle_line2": "2 42990  97.4287 130.6632 0000951 257.2238 102.8898 15.33228179455830"
      },
      "geometry": {
        "type": "Point",
        "coordinates": [
          -83.42594552626501,
          -76.95298294932658
        ]
      }
    },
    {
      "type": "Feature",
      "properties": {
        "norad_id": 42991,
        "name": "SKYSAT-C7",
        "group": "resource",
        "lat": 80.71036796698488,
        "lon": 78.95204110881882,
        "alt_km": 459.18634146434215,
        "timestamp": "2025-12-26T18:39:31.929907+00:00",
        "meta_object_name": "SKYSAT-C7",
        "meta_object_id": "2017-068E",
        "meta_epoch": "2025-12-26T08:53:26.128320",
        "meta_mean_motion": 15.32615619,
        "meta_eccentricity": 0.00067856,
        "meta_inclination": 97.4296,
        "meta_ra_of_asc_node": 131.4629,
        "meta_arg_of_pericenter": 13.3039,
        "meta_mean_anomaly": 346.838,
        "meta_ephemeris_type": 0,
        "meta_classification_type": "U",
        "meta_norad_cat_id": 42991,
        "meta_element_set_no": 999,
        "meta_rev_at_epoch": 45586,
        "meta_bstar": 0.00036174908,
        "meta_mean_motion_dot": 0.00011327,
        "meta_mean_motion_ddot": 0,
        "tle_line1": "1 42991U 17068E   25360.37044130  .00011327  00000+0  36175-3 0  9993",
        "tle_line2": "2 42991  97.4296 131.4629 0006785  13.3039 346.8380 15.32615619455864"
      },
      "geometry": {
        "type": "Point",
        "coordinates": [
          78.95204110881882,
          80.71036796698488
        ]
      }
    },
    {
      "type": "Feature",
      "properties": {
        "norad_id": 42992,
        "name": "SKYSAT-C6",
        "group": "resource",
        "lat": 20.845136015469674,
        "lon": -44.852382970478615,
        "alt_km": 471.9340372939614,
        "timestamp": "2025-12-26T18:39:31.929917+00:00",
        "meta_object_name": "SKYSAT-C6",
        "meta_object_id": "2017-068F",
        "meta_epoch": "2025-12-25T20:01:06.090528",
        "meta_mean_motion": 15.31757076,
        "meta_eccentricity": 0.00047376,
        "meta_inclination": 97.4326,
        "meta_ra_of_asc_node": 131.3522,
        "meta_arg_of_pericenter": 46.8398,
        "meta_mean_anomaly": 313.3239,
        "meta_ephemeris_type": 0,
        "meta_classification_type": "U",
        "meta_norad_cat_id": 42992,
        "meta_element_set_no": 999,
        "meta_rev_at_epoch": 45576,
        "meta_bstar": 0.00037471515,
        "meta_mean_motion_dot": 0.0001142,
        "meta_mean_motion_ddot": 0,
        "tle_line1": "1 42992U 17068F   25359.83409827  .00011420  00000+0  37472-3 0  9996",
        "tle_line2": "2 42992  97.4326 131.3522 0004737  46.8398 313.3239 15.31757076455768"
      },
      "geometry": {
        "type": "Point",
        "coordinates": [
          -44.852382970478615,
          20.845136015469674
        ]
      }
    },
    {
      "type": "Feature",
      "properties": {
        "norad_id": 43111,
        "name": "CARTOSAT-2F",
        "group": "resource",
        "lat": 0.5233982387935027,
        "lon": 58.118357621224,
        "alt_km": 511.3767394784545,
        "timestamp": "2025-12-26T18:39:31.929927+00:00",
        "meta_object_name": "CARTOSAT-2F",
        "meta_object_id": "2018-004A",
        "meta_epoch": "2025-12-26T15:29:42.401760",
        "meta_mean_motion": 15.19263763,
        "meta_eccentricity": 0.00015183,
        "meta_inclination": 97.4292,
        "meta_ra_of_asc_node": 58.057,
        "meta_arg_of_pericenter": 107.7284,
        "meta_mean_anomaly": 252.4116,
        "meta_ephemeris_type": 0,
        "meta_classification_type": "U",
        "meta_norad_cat_id": 43111,
        "meta_element_set_no": 999,
        "meta_rev_at_epoch": 44113,
        "meta_bstar": 0.00040310686,
        "meta_mean_motion_dot": 8.435e-05,
        "meta_mean_motion_ddot": 0,
        "tle_line1": "1 43111U 18004A   25360.64562965  .00008435  00000+0  40311-3 0  9993",
        "tle_line2": "2 43111  97.4292  58.0570 0001518 107.7284 252.4116 15.19263763441131"
      },
      "geometry": {
        "type": "Point",
        "coordinates": [
          58.118357621224,
          0.5233982387935027
        ]
      }
    },
    {
      "type": "Feature",
      "properties": {
        "norad_id": 43259,
        "name": "GAOFEN-1 02",
        "group": "resource",
        "lat": 52.285838519278414,
        "lon": -110.84599951378384,
        "alt_km": 634.2389245228496,
        "timestamp": "2025-12-26T18:39:31.929937+00:00",
        "meta_object_name": "GAOFEN-1 02",
        "meta_object_id": "2018-031A",
        "meta_epoch": "2025-12-26T14:49:58.839168",
        "meta_mean_motion": 14.76445769,
        "meta_eccentricity": 0.00026912,
        "meta_inclination": 98.0783,
        "meta_ra_of_asc_node": 58.4109,
        "meta_arg_of_pericenter": 166.9055,
        "meta_mean_anomaly": 193.2225,
        "meta_ephemeris_type": 0,
        "meta_classification_type": "U",
        "meta_norad_cat_id": 43259,
        "meta_element_set_no": 999,
        "meta_rev_at_epoch": 41723,
        "meta_bstar": 0.00023057176,
        "meta_mean_motion_dot": 1.552e-05,
        "meta_mean_motion_ddot": 0,
        "tle_line1": "1 43259U 18031A   25360.61804212  .00001552  00000+0  23057-3 0  9998",
        "tle_line2": "2 43259  98.0783  58.4109 0002691 166.9055 193.2225 14.76445769417231"
      },
      "geometry": {
        "type": "Point",
        "coordinates": [
          -110.84599951378384,
          52.285838519278414
        ]
      }
    },
    {
      "type": "Feature",
      "properties": {
        "norad_id": 43260,
        "name": "GAOFEN-1 03",
        "group": "resource",
        "lat": -62.00944502015286,
        "lon": -137.0521747152059,
        "alt_km": 646.652372568471,
        "timestamp": "2025-12-26T18:39:31.929947+00:00",
        "meta_object_name": "GAOFEN-1 03",
        "meta_object_id": "2018-031B",
        "meta_epoch": "2025-12-26T14:18:29.257344",
        "meta_mean_motion": 14.76426893,
        "meta_eccentricity": 0.00016534,
        "meta_inclination": 98.0779,
        "meta_ra_of_asc_node": 58.265,
        "meta_arg_of_pericenter": 251.4622,
        "meta_mean_anomaly": 108.6408,
        "meta_ephemeris_type": 0,
        "meta_classification_type": "U",
        "meta_norad_cat_id": 43260,
        "meta_element_set_no": 999,
        "meta_rev_at_epoch": 41722,
        "meta_bstar": 0.0001627175,
        "meta_mean_motion_dot": 1.08e-05,
        "meta_mean_motion_ddot": 0,
        "tle_line1": "1 43260U 18031B   25360.59617196  .00001080  00000+0  16272-3 0  9997",
        "tle_line2": "2 43260  98.0779  58.2650 0001653 251.4622 108.6408 14.76426893417223"
      },
      "geometry": {
        "type": "Point",
        "coordinates": [
          -137.0521747152059,
          -62.00944502015286
        ]
      }
    }
  ]
}